COMMENT,ORIGINATOR,NORAD_CAT_ID,OBJECT_NAME,OBJECT_TYPE,CLASSIFICATION_TYPE,INTLDES,EPOCH,EPOCH_MICROSECONDS,MEAN_MOTION,ECCENTRICITY,INCLINATION,RA_OF_ASC_NODE,ARG_OF_PERICENTER,MEAN_ANOMALY,EPHEMERIS_TYPE,ELEMENT_SET_NO,REV_AT_EPOCH,BSTAR,MEAN_MOTION_DOT,MEAN_MOTION_DDOT,FILE,TLE_LINE0,TLE_LINE1,TLE_LINE2,OBJECT_ID,OBJECT_NUMBER,SEMIMAJOR_AXIS,PERIOD,APOGEE,PERIGEE,DECAYED
"GENERATED VIA SPACETRACK.ORG API","18 SPCS","48904","SPACEBEE-111","PAYLOAD","U","21059AB","2021-12-14 08:19:17","919552","15.13292951","0.0011447","97.5362","114.8826","28.4672","331.7182","0","999","2593","0.0001238","0.0000214","0","3239923","0 SPACEBEE-111","1 48904U 21059AB  21348.34673518  .00002140  00000-0  12380-3 0  9991","2 48904  97.5362 114.8826 0011447  28.4672 331.7182 15.13292951 25937","2021-059AB","48904","6904.303","95.157","534.071","518.265","1"
"GENERATED VIA SPACETRACK.ORG API","18 SPCS","48904","SPACEBEE-111","PAYLOAD","U","21059AB","2021-12-14 14:40:09","944544","15.13294652","0.0011425","97.5362","115.1441","27.6176","332.566","0","999","2597","0.00012896","0.00002232","0","3240057","0 SPACEBEE-111","1 48904U 21059AB  21348.61122621  .00002232  00000-0  12896-3 0  9999","2 48904  97.5362 115.1441 0011425  27.6176 332.5660 15.13294652 25974","2021-059AB","48904","6904.298","95.157","534.051","518.275","1"
"GENERATED VIA SPACETRACK.ORG API","18 SPCS","48904","SPACEBEE-111","PAYLOAD","U","21059AB","2021-12-14 21:01:01","934976","15.13295184","0.0011394","97.5358","115.4055","26.989","333.1931","0","999","2601","0.00010931","0.00001882","0","3240318","0 SPACEBEE-111","1 48904U 21059AB  21348.87571684  .00001882  00000-0  10931-3 0  9992","2 48904  97.5358 115.4055 0011394  26.9890 333.1931 15.13295184 26018","2021-059AB","48904","6904.296","95.157","534.028","518.294","1"
"GENERATED VIA SPACETRACK.ORG API","18 SPCS","48904","SPACEBEE-111","PAYLOAD","U","21059AB","2021-12-15 08:07:32","931840","15.13298028","0.0011363","97.5358","115.8631","25.4813","334.6976","0","999","2608","0.00012509","0.00002164","0","3241011","0 SPACEBEE-111","1 48904U 21059AB  21349.33857560  .00002164  00000-0  12509-3 0  9991","2 48904  97.5358 115.8631 0011363  25.4813 334.6976 15.13298028 26089","2021-059AB","48904","6904.287","95.156","533.998","518.307","1"
"GENERATED VIA SPACETRACK.ORG API","18 SPCS","48904","SPACEBEE-111","PAYLOAD","U","21059AB","2021-12-15 19:14:03","822432","15.13301745","0.0011325","97.5358","116.3208","24.0548","336.121","0","999","2615","0.00015063","0.00002619","0","3241272","0 SPACEBEE-111","1 48904U 21059AB  21349.80143313  .00002619  00000-0  15063-3 0  9990","2 48904  97.5358 116.3208 0011325  24.0548 336.1210 15.13301745 26150","2021-059AB","48904","6904.276","95.156","533.960","518.322","1"
"GENERATED VIA SPACETRACK.ORG API","18 SPCS","48904","SPACEBEE-111","PAYLOAD","U","21059AB","2021-12-15 22:24:29","785248","15.13303008","0.0011319","97.5359","116.4515","23.5871","336.5877","0","999","2617","0.00016291","0.00002838","0","3241542","0 SPACEBEE-111","1 48904U 21059AB  21349.93367807  .00002838  00000-0  16291-3 0  9997","2 48904  97.5359 116.4515 0011319  23.5871 336.5877 15.13303008 26178","2021-059AB","48904","6904.272","95.156","533.952","518.322","1"
"GENERATED VIA SPACETRACK.ORG API","18 SPCS","48904","SPACEBEE-111","PAYLOAD","U","21059AB","2021-12-16 07:55:47","628768","15.133049","0.0011287","97.536","116.8438","22.2269","337.945","0","999","2623","0.00016095","0.00002803","0","3241867","0 SPACEBEE-111","1 48904U 21059AB  21350.33041237  .00002803  00000-0  16095-3 0  9993","2 48904  97.5360 116.8438 0011287  22.2269 337.9450 15.13304900 26230","2021-059AB","48904","6904.267","95.156","533.924","518.339","1"
"GENERATED VIA SPACETRACK.ORG API","18 SPCS","48904","SPACEBEE-111","PAYLOAD","U","21059AB","2021-12-16 22:12:44","299872","15.13309008","0.0011235","97.5361","117.4323","20.2795","339.888","0","999","2632","0.00017987","0.00003141","0","3242119","0 SPACEBEE-111","1 48904U 21059AB  21350.92551273  .00003141  00000-0  17987-3 0  9991","2 48904  97.5361 117.4323 0011235  20.2795 339.8880 15.13309008 26328","2021-059AB","48904","6904.254","95.156","533.876","518.362","1"
"GENERATED VIA SPACETRACK.ORG API","18 SPCS","48904","SPACEBEE-111","PAYLOAD","U","21059AB","2021-12-17 20:25:45","485760","15.13316164","0.0011152","97.5363","118.3476","17.1402","343.0204","0","999","2646","0.00020986","0.00003676","0","3243045","0 SPACEBEE-111","1 48904U 21059AB  21351.85122090  .00003676  00000-0  20986-3 0  9991","2 48904  97.5363 118.3476 0011152  17.1402 343.0204 15.13316164 26460","2021-059AB","48904","6904.232","95.155","533.797","518.398","1"
"GENERATED VIA SPACETRACK.ORG API","18 SPCS","48904","SPACEBEE-111","PAYLOAD","U","21059AB","2021-12-18 07:32:15","959904","15.13320013","0.0011094","97.5363","118.8052","15.382","344.7746","0","999","2653","0.00024484","0.00004301","0","3243467","0 SPACEBEE-111","1 48904U 21059AB  21352.31407361  .00004301  00000-0  24484-3 0  9993","2 48904  97.5363 118.8052 0011094  15.3820 344.7746 15.13320013 26539","2021-059AB","48904","6904.221","95.155","533.745","518.426","1"
"GENERATED VIA SPACETRACK.ORG API","18 SPCS","48904","SPACEBEE-111","PAYLOAD","U","21059AB","2021-12-18 07:32:15","959904","15.13320013","0.0011094","97.5363","118.8052","15.382","344.7746","0","999","2653","0.00024484","0.00004301","0","3243681","0 SPACEBEE-111","1 48904U 21059AB  21352.31407361  .00004301  00000-0  24484-3 0  9993","2 48904  97.5363 118.8052 0011094  15.3820 344.7746 15.13320013 26539","2021-059AB","48904","6904.221","95.155","533.745","518.426","1"
"GENERATED VIA SPACETRACK.ORG API","18 SPCS","48904","SPACEBEE-111","PAYLOAD","U","21059AB","2021-12-18 21:49:12","79776","15.13325751","0.0011027","97.5365","119.3936","13.4501","346.7022","0","999","2662","0.00026836","0.00004721","0","3244101","0 SPACEBEE-111","1 48904U 21059AB  21352.90916759  .00004721  00000-0  26836-3 0  9993","2 48904  97.5365 119.3936 0011027  13.4501 346.7022 15.13325751 26622","2021-059AB","48904","6904.203","95.155","533.681","518.455","1"
"GENERATED VIA SPACETRACK.ORG API","18 SPCS","48904","SPACEBEE-111","PAYLOAD","U","21059AB","2021-12-19 07:20:29","376384","15.13330224","0.0011005","97.5366","119.7859","12.1125","348.0368","0","999","2668","0.00029194","0.00005143","0","3244588","0 SPACEBEE-111","1 48904U 21059AB  21353.30589556  .00005143  00000-0  29194-3 0  9998","2 48904  97.5366 119.7859 0011005  12.1125 348.0368 15.13330224 26680","2021-059AB","48904","6904.190","95.154","533.653","518.456","1"
"GENERATED VIA SPACETRACK.ORG API","18 SPCS","48904","SPACEBEE-111","PAYLOAD","U","21059AB","2021-12-19 18:26:59","453952","15.13335097","0.0010962","97.5368","120.2436","10.6401","349.506","0","999","2675","0.00030641","0.00005402","0","3244704","0 SPACEBEE-111","1 48904U 21059AB  21353.76874368  .00005402  00000-0  30641-3 0  9993","2 48904  97.5368 120.2436 0010962  10.6401 349.5060 15.13335097 26757","2021-059AB","48904","6904.175","95.154","533.608","518.471","1"
"GENERATED VIA SPACETRACK.ORG API","18 SPCS","48904","SPACEBEE-111","PAYLOAD","U","21059AB","2021-12-19 21:37:25","141152","15.13338829","0.0010951","97.5368","120.3743","10.2034","349.9417","0","999","2677","0.00036222","0.00006399","0","3244825","0 SPACEBEE-111","1 48904U 21059AB  21353.90098543  .00006399  00000-0  36222-3 0  9999","2 48904  97.5368 120.3743 0010951  10.2034 349.9417 15.13338829 26773","2021-059AB","48904","6904.163","95.154","533.589","518.468","1"
"GENERATED VIA SPACETRACK.ORG API","18 SPCS","48904","SPACEBEE-111","PAYLOAD","U","21059AB","2021-12-20 08:43:54","899040","15.13347906","0.0010927","97.537","120.832","8.6915","351.4503","0","999","2684","0.00046052","0.00008158","0","3245363","0 SPACEBEE-111","1 48904U 21059AB  21354.36382985  .00008158  00000-0  46052-3 0  9993","2 48904  97.5370 120.8320 0010927   8.6915 351.4503 15.13347906 26842","2021-059AB","48904","6904.136","95.153","533.545","518.457","1"
"GENERATED VIA SPACETRACK.ORG API","18 SPCS","48904","SPACEBEE-111","PAYLOAD","U","21059AB","2021-12-20 19:50:24","581760","15.13351559","0.001092","97.537","121.2898","7.1923","352.9463","0","999","2691","0.00040009","0.00007078","0","3245496","0 SPACEBEE-111","1 48904U 21059AB  21354.82667340  .00007078  00000-0  40009-3 0  9991","2 48904  97.5370 121.2898 0010920   7.1923 352.9463 15.13351559 26911","2021-059AB","48904","6904.125","95.153","533.529","518.450","1"
"GENERATED VIA SPACETRACK.ORG API","18 SPCS","48904","SPACEBEE-111","PAYLOAD","U","21059AB","2021-12-20 21:25:37","383456","15.13351959","0.0010915","97.537","121.3552","6.9811","353.157","0","999","2692","0.00038788","0.0000686","0","3245895","0 SPACEBEE-111","1 48904U 21059AB  21354.89279379  .00006860  00000-0  38788-3 0  9998","2 48904  97.5370 121.3552 0010915   6.9811 353.1570 15.13351959 26923","2021-059AB","48904","6904.123","95.153","533.524","518.453","1"
"GENERATED VIA SPACETRACK.ORG API","18 SPCS","48904","SPACEBEE-111","PAYLOAD","U","21059AB","2021-12-21 08:32:06","790560","15.13359584","0.0010878","97.5372","121.8129","5.543","354.5919","0","999","2699","0.00040981","0.00007254","0","3246489","0 SPACEBEE-111","1 48904U 21059AB  21355.35563415  .00007254  00000-0  40981-3 0  9993","2 48904  97.5372 121.8129 0010878   5.5430 354.5919 15.13359584 26991","2021-059AB","48904","6904.100","95.153","533.476","518.455","1"
"GENERATED VIA SPACETRACK.ORG API","18 SPCS","48904","SPACEBEE-111","PAYLOAD","U","21059AB","2021-12-21 21:13:48","804096","15.13365115","0.0010845","97.5372","122.336","3.7298","356.4012","0","999","2707","0.00035355","0.00006249","0","3246711","0 SPACEBEE-111","1 48904U 21059AB  21355.88459264  .00006249  00000-0  35355-3 0  9999","2 48904  97.5372 122.3360 0010845   3.7298 356.4012 15.13365115 27072","2021-059AB","48904","6904.083","95.152","533.436","518.461","1"
